[{"OBJECT_NAME":"STARLINK-32460","OBJECT_ID":"2024-207C","EPOCH":"2026-03-09T00:20:23.620128","MEAN_MOTION":15.27590764,"ECCENTRICITY":0.00017001,"INCLINATION":43.0002,"RA_OF_ASC_NODE":285.1359,"ARG_OF_PERICENTER":273.0231,"MEAN_ANOMALY":87.0426,"EPHEMERIS_TYPE":0,"CLASSIFICATION_TYPE":"U","NORAD_CAT_ID":61914,"ELEMENT_SET_NO":999,"REV_AT_EPOCH":7462,"BSTAR":0.0010471334,"MEAN_MOTION_DOT":0.00028675,"MEAN_MOTION_DDOT":0},{"OBJECT_NAME":"TEVEL2-8","OBJECT_ID":"2025-052AF","EPOCH":"2026-03-09T16:02:08.542752","MEAN_MOTION":15.28392908,"ECCENTRICITY":0.0008031,"INCLINATION":97.4055,"RA_OF_ASC_NODE":324.2923,"ARG_OF_PERICENTER":124.9191,"MEAN_ANOMALY":235.2804,"EPHEMERIS_TYPE":0,"CLASSIFICATION_TYPE":"U","NORAD_CAT_ID":63239,"ELEMENT_SET_NO":999,"REV_AT_EPOCH":5480,"BSTAR":0.00069303947,"MEAN_MOTION_DOT":0.0001913,"MEAN_MOTION_DDOT":0}]
